{
  "type": "Feature",
  "properties": {
    "supplier_id": "SUP-008",
    "parcel_id": "PARCEL-SUP-008",
    "note": "SYNTHETIC demo geometry. Not a real plot."
  },
  "geometry": {
    "type": "Polygon",
    "coordinates": [
      [
        [
          111.02777718422969,
          -0.5118518003820611
        ],
        [
          111.0287107737724,
          -0.5118518003820611
        ],
        [
          111.0287107737724,
          -0.5109119497078147
        ],
        [
          111.02777718422969,
          -0.5109119497078147
        ],
        [
          111.02777718422969,
          -0.5118518003820611
        ]
      ]
    ]
  }
}