{
  "type": "Feature",
  "properties": {
    "supplier_id": "SUP-013",
    "parcel_id": "PARCEL-SUP-013",
    "note": "SYNTHETIC demo geometry. Not a real plot."
  },
  "geometry": {
    "type": "Polygon",
    "coordinates": [
      [
        [
          110.42200821625376,
          -0.3994961444207167
        ],
        [
          110.42311210626501,
          -0.3994961444207167
        ],
        [
          110.42311210626501,
          -0.39838483382985046
        ],
        [
          110.42200821625376,
          -0.39838483382985046
        ],
        [
          110.42200821625376,
          -0.3994961444207167
        ]
      ]
    ]
  }
}