{
  "type": "Feature",
  "properties": {
    "supplier_id": "SUP-015",
    "parcel_id": "PARCEL-SUP-015",
    "note": "SYNTHETIC demo geometry. Not a real plot."
  },
  "geometry": {
    "type": "Polygon",
    "coordinates": [
      [
        [
          110.34458645650503,
          -0.21013637301982546
        ],
        [
          110.34618838549494,
          -0.21013637301982546
        ],
        [
          110.34618838549494,
          -0.20852364719819227
        ],
        [
          110.34458645650503,
          -0.20852364719819227
        ],
        [
          110.34458645650503,
          -0.21013637301982546
        ]
      ]
    ]
  }
}