{
  "type": "Feature",
  "properties": {
    "supplier_id": "SUP-020",
    "parcel_id": "PARCEL-SUP-020",
    "note": "SYNTHETIC demo geometry. Not a real plot."
  },
  "geometry": {
    "type": "Polygon",
    "coordinates": [
      [
        [
          111.23224118870117,
          -0.1605631294531342
        ],
        [
          111.23380229315391,
          -0.1605631294531342
        ],
        [
          111.23380229315391,
          -0.1589914989435223
        ],
        [
          111.23224118870117,
          -0.1589914989435223
        ],
        [
          111.23224118870117,
          -0.1605631294531342
        ]
      ]
    ]
  }
}