{
  "type": "Feature",
  "properties": {
    "supplier_id": "SUP-005",
    "parcel_id": "PARCEL-SUP-005",
    "note": "SYNTHETIC demo geometry. Not a real plot."
  },
  "geometry": {
    "type": "Polygon",
    "coordinates": [
      [
        [
          110.96168124985424,
          -0.446906971251288
        ],
        [
          110.98553865338168,
          -0.446906971251288
        ],
        [
          110.98553865338168,
          -0.4228893029484686
        ],
        [
          110.96168124985424,
          -0.4228893029484686
        ],
        [
          110.96168124985424,
          -0.446906971251288
        ]
      ]
    ]
  }
}