{
  "type": "Feature",
  "properties": {
    "supplier_id": "SUP-014",
    "parcel_id": "PARCEL-SUP-014",
    "note": "SYNTHETIC demo geometry. Not a real plot."
  },
  "geometry": {
    "type": "Polygon",
    "coordinates": [
      [
        [
          111.19156576048637,
          -0.5321395228367851
        ],
        [
          111.19324401640561,
          -0.5321395228367851
        ],
        [
          111.19324401640561,
          -0.5304500170133304
        ],
        [
          111.19156576048637,
          -0.5304500170133304
        ],
        [
          111.19156576048637,
          -0.5321395228367851
        ]
      ]
    ]
  }
}