{
  "type": "Feature",
  "properties": {
    "supplier_id": "SUP-003",
    "parcel_id": "PARCEL-SUP-003",
    "note": "SYNTHETIC demo geometry. Not a real plot."
  },
  "geometry": {
    "type": "Polygon",
    "coordinates": [
      [
        [
          111.0823718471922,
          -0.33685306825148315
        ],
        [
          111.121621656863,
          -0.33685306825148315
        ],
        [
          111.121621656863,
          -0.29733906044955066
        ],
        [
          111.0823718471922,
          -0.29733906044955066
        ],
        [
          111.0823718471922,
          -0.33685306825148315
        ]
      ]
    ]
  }
}