{
  "type": "Feature",
  "properties": {
    "supplier_id": "SUP-016",
    "parcel_id": "PARCEL-SUP-016",
    "note": "SYNTHETIC demo geometry. Not a real plot."
  },
  "geometry": {
    "type": "Polygon",
    "coordinates": [
      [
        [
          111.1794576533046,
          -0.3805169805573969
        ],
        [
          111.18065280486529,
          -0.3805169805573969
        ],
        [
          111.18065280486529,
          -0.37931379222237693
        ],
        [
          111.1794576533046,
          -0.37931379222237693
        ],
        [
          111.1794576533046,
          -0.3805169805573969
        ]
      ]
    ]
  }
}