{
  "type": "Feature",
  "properties": {
    "supplier_id": "SUP-011",
    "parcel_id": "PARCEL-SUP-011",
    "note": "SYNTHETIC demo geometry. Not a real plot."
  },
  "geometry": {
    "type": "Polygon",
    "coordinates": [
      [
        [
          110.86137983874619,
          -0.5142550245533158
        ],
        [
          110.8628587049713,
          -0.5142550245533158
        ],
        [
          110.8628587049713,
          -0.5127662407855987
        ],
        [
          110.86137983874619,
          -0.5127662407855987
        ],
        [
          110.86137983874619,
          -0.5142550245533158
        ]
      ]
    ]
  }
}