{
  "type": "Feature",
  "properties": {
    "supplier_id": "SUP-009",
    "parcel_id": "PARCEL-SUP-009",
    "note": "SYNTHETIC demo geometry. Not a real plot."
  },
  "geometry": {
    "type": "Polygon",
    "coordinates": [
      [
        [
          110.69483180733585,
          -0.006016391289603013
        ],
        [
          110.69647107140932,
          -0.006016391289603013
        ],
        [
          110.69647107140932,
          -0.004366067742395291
        ],
        [
          110.69483180733585,
          -0.004366067742395291
        ],
        [
          110.69483180733585,
          -0.006016391289603013
        ]
      ]
    ]
  }
}