{
  "type": "Feature",
  "properties": {
    "supplier_id": "SUP-018",
    "parcel_id": "PARCEL-SUP-018",
    "note": "SYNTHETIC demo geometry. Not a real plot."
  },
  "geometry": {
    "type": "Polygon",
    "coordinates": [
      [
        [
          111.00671127763746,
          -0.18629146450249764
        ],
        [
          111.0078114854229,
          -0.18629146450249764
        ],
        [
          111.0078114854229,
          -0.18518383986072687
        ],
        [
          111.00671127763746,
          -0.18518383986072687
        ],
        [
          111.00671127763746,
          -0.18629146450249764
        ]
      ]
    ]
  }
}