{
  "type": "Feature",
  "properties": {
    "supplier_id": "SUP-022",
    "parcel_id": "PARCEL-SUP-022",
    "note": "SYNTHETIC demo geometry. Not a real plot."
  },
  "geometry": {
    "type": "Polygon",
    "coordinates": [
      [
        [
          111.28575679704298,
          -0.33181926702563236
        ],
        [
          111.28707706150027,
          -0.33181926702563236
        ],
        [
          111.28707706150027,
          -0.3304901174555075
        ],
        [
          111.28575679704298,
          -0.3304901174555075
        ],
        [
          111.28575679704298,
          -0.33181926702563236
        ]
      ]
    ]
  }
}