{
  "type": "Feature",
  "properties": {
    "supplier_id": "SUP-006",
    "parcel_id": "PARCEL-SUP-006",
    "note": "SYNTHETIC demo geometry. Not a real plot."
  },
  "geometry": {
    "type": "Polygon",
    "coordinates": [
      [
        [
          110.32858134639095,
          -0.29164384490673245
        ],
        [
          110.36805518217928,
          -0.29164384490673245
        ],
        [
          110.36805518217928,
          -0.25190414148318785
        ],
        [
          110.32858134639095,
          -0.25190414148318785
        ],
        [
          110.32858134639095,
          -0.29164384490673245
        ]
      ]
    ]
  }
}