{
  "type": "Feature",
  "properties": {
    "supplier_id": "SUP-010",
    "parcel_id": "PARCEL-SUP-010",
    "note": "SYNTHETIC demo geometry. Not a real plot."
  },
  "geometry": {
    "type": "Polygon",
    "coordinates": [
      [
        [
          110.53065014323919,
          -0.5367085637053303
        ],
        [
          110.53222161475587,
          -0.5367085637053303
        ],
        [
          110.53222161475587,
          -0.5351265592843509
        ],
        [
          110.53065014323919,
          -0.5351265592843509
        ],
        [
          110.53065014323919,
          -0.5367085637053303
        ]
      ]
    ]
  }
}