{
  "type": "Feature",
  "properties": {
    "supplier_id": "SUP-004",
    "parcel_id": "PARCEL-SUP-004",
    "note": "SYNTHETIC demo geometry. Not a real plot."
  },
  "geometry": {
    "type": "Polygon",
    "coordinates": [
      [
        [
          110.67051962582333,
          -0.1603341507490578
        ],
        [
          110.72328750398835,
          -0.1603341507490578
        ],
        [
          110.72328750398835,
          -0.10721041291717234
        ],
        [
          110.67051962582333,
          -0.10721041291717234
        ],
        [
          110.67051962582333,
          -0.1603341507490578
        ]
      ]
    ]
  }
}