{
  "type": "Feature",
  "properties": {
    "supplier_id": "SUP-012",
    "parcel_id": "PARCEL-SUP-012",
    "note": "SYNTHETIC demo geometry. Not a real plot."
  },
  "geometry": {
    "type": "Polygon",
    "coordinates": [
      [
        [
          110.51707523538406,
          -0.4180385824136496
        ],
        [
          110.51862860180563,
          -0.4180385824136496
        ],
        [
          110.51862860180563,
          -0.4164747774987699
        ],
        [
          110.51707523538406,
          -0.4164747774987699
        ],
        [
          110.51707523538406,
          -0.4180385824136496
        ]
      ]
    ]
  }
}