{
  "type": "Feature",
  "properties": {
    "supplier_id": "SUP-021",
    "parcel_id": "PARCEL-SUP-021",
    "note": "SYNTHETIC demo geometry. Not a real plot."
  },
  "geometry": {
    "type": "Polygon",
    "coordinates": [
      [
        [
          110.6020923815357,
          -0.13424674252332347
        ],
        [
          110.60379444286062,
          -0.13424674252332347
        ],
        [
          110.60379444286062,
          -0.1325332026928483
        ],
        [
          110.6020923815357,
          -0.1325332026928483
        ],
        [
          110.6020923815357,
          -0.13424674252332347
        ]
      ]
    ]
  }
}