{
  "type": "Feature",
  "properties": {
    "supplier_id": "SUP-007",
    "parcel_id": "PARCEL-SUP-007",
    "note": "SYNTHETIC demo geometry. Not a real plot."
  },
  "geometry": {
    "type": "Polygon",
    "coordinates": [
      [
        [
          110.30250998362841,
          -0.15050989098370532
        ],
        [
          110.30408651872456,
          -0.15050989098370532
        ],
        [
          110.30408651872456,
          -0.14892272503377274
        ],
        [
          110.30250998362841,
          -0.14892272503377274
        ],
        [
          110.30250998362841,
          -0.15050989098370532
        ]
      ]
    ]
  }
}