{
  "type": "Feature",
  "properties": {
    "supplier_id": "SUP-019",
    "parcel_id": "PARCEL-SUP-019",
    "note": "SYNTHETIC demo geometry. Not a real plot."
  },
  "geometry": {
    "type": "Polygon",
    "coordinates": [
      [
        [
          110.58412029298616,
          -0.42822990220981993
        ],
        [
          110.58543137149006,
          -0.42822990220981993
        ],
        [
          110.58543137149006,
          -0.42691001511888294
        ],
        [
          110.58412029298616,
          -0.42691001511888294
        ],
        [
          110.58412029298616,
          -0.42822990220981993
        ]
      ]
    ]
  }
}