{
  "type": "Feature",
  "properties": {
    "supplier_id": "SUP-023",
    "parcel_id": "PARCEL-SUP-023",
    "note": "SYNTHETIC demo geometry. Not a real plot."
  },
  "geometry": {
    "type": "Polygon",
    "coordinates": [
      [
        [
          -0.24254531205521282,
          111.00320841768666
        ],
        [
          -0.24254531205521282,
          111.00434115508023
        ],
        [
          -0.24140494269054133,
          111.00434115508023
        ],
        [
          -0.24140494269054133,
          111.00320841768666
        ],
        [
          -0.24254531205521282,
          111.00320841768666
        ]
      ]
    ]
  }
}