{
  "type": "Feature",
  "properties": {
    "supplier_id": "SUP-017",
    "parcel_id": "PARCEL-SUP-017",
    "note": "SYNTHETIC demo geometry. Not a real plot."
  },
  "geometry": {
    "type": "Polygon",
    "coordinates": [
      [
        [
          110.77284609398014,
          -0.10127908091709283
        ],
        [
          110.77409729859455,
          -0.10127908091709283
        ],
        [
          110.77409729859455,
          -0.10001943685273916
        ],
        [
          110.77284609398014,
          -0.10001943685273916
        ],
        [
          110.77284609398014,
          -0.10127908091709283
        ]
      ]
    ]
  }
}